{
  "norad_id": 56109,
  "name": "STARLINK-6083",
  "history": [
    {
      "epoch": "2026-03-28T20:00:01.999872",
      "apogee_km": 495.5095480381897,
      "perigee_km": 493.601001393502,
      "latitude_deg": 42.966340309807165,
      "longitude_deg": -129.09777792007662,
      "semi_major_axis_km": 6872.692274715846,
      "eccentricity": 0.00013885,
      "inclination_deg": 43.0024,
      "raan_deg": 53.5993,
      "arg_perigee_deg": 257.6669,
      "mean_anomaly_deg": 235.1034,
      "mean_motion_rev_day": 15.23745422
    },
    {
      "epoch": "2026-03-29T04:00:01.999584",
      "apogee_km": 493.32340435247534,
      "perigee_km": 492.0206989562821,
      "latitude_deg": 23.56474360458874,
      "longitude_deg": -97.09777824021876,
      "semi_major_axis_km": 6870.809051654378,
      "eccentricity": 9.48e-05,
      "inclination_deg": 43.0002,
      "raan_deg": 51.7241,
      "arg_perigee_deg": 251.7711,
      "mean_anomaly_deg": 271.9151,
      "mean_motion_rev_day": 15.24371931
    }
  ]
}